NORAD_CAT_ID,OBJECT_NAME,OBJECT_TYPE,EPOCH,MEAN_MOTION,ECCENTRICITY,INCLINATION,RA_OF_ASC_NODE,ARG_OF_PERICENTER,MEAN_ANOMALY,BSTAR,MEAN_MOTION_DOT,MEAN_MOTION_DDOT,TLE_LINE0,TLE_LINE1,TLE_LINE2,SEMIMAJOR_AXIS,PERIOD,APOGEE,PERIGEE,DECAYED
52363.0,STARLINK-3830,PAYLOAD,2024-04-27 22:01:24,15.08817999,0.0001539,53.2186,15.2234,105.6428,254.4734,-0.00032481,-5.45e-05,0.0,0 STARLINK-3830,1 52363U 22045AJ  24118.91764958 -.00005450  00000-0 -32481-3 0  9994,2 52363  53.2186  15.2234 0001539 105.6428 254.4734 15.08817999113019,6917.948,95.439,540.877,538.748,0.0
52363.0,STARLINK-3830,PAYLOAD,2024-04-28 02:47:34,15.08820504,0.0001797,53.218,14.3299,113.8454,246.2726,-0.00024989,-4.261e-05,0.0,0 STARLINK-3830,1 52363U 22045AJ  24119.11636989 -.00004261  00000-0 -24989-3 0  9992,2 52363  53.2180  14.3299 0001797 113.8454 246.2726 15.08820504113049,6917.94,95.439,541.048,538.562,0.0
52363.0,STARLINK-3830,PAYLOAD,2024-04-28 20:16:48,15.08832566,0.0001138,53.2186,11.062,89.0948,271.0174,0.00019242,2.775e-05,0.0,0 STARLINK-3830,1 52363U 22045AJ  24119.84500826  .00002775  00000-0  19242-3 0  9994,2 52363  53.2186  11.0620 0001138  89.0948 271.0174 15.08832566113154,6917.903,95.438,540.555,538.981,0.0
52363.0,STARLINK-3830,PAYLOAD,2024-04-28 21:52:11,15.08835599,0.0001297,53.2178,10.7654,77.2054,282.9083,0.00023844,3.508e-05,0.0,0 STARLINK-3830,1 52363U 22045AJ  24119.91124789  .00003508  00000-0  23844-3 0  9990,2 52363  53.2178  10.7654 0001297  77.2054 282.9083 15.08835599113161,6917.894,95.438,540.656,538.862,0.0
52363.0,STARLINK-3830,PAYLOAD,2024-04-28 23:27:34,15.08844896,0.0001531,53.2192,10.4695,90.7116,269.4051,0.00011312,1.513e-05,0.0,0 STARLINK-3830,1 52363U 22045AJ  24119.97748262  .00001513  00000-0  11312-3 0  9995,2 52363  53.2192  10.4695 0001531  90.7116 269.4051 15.08844896113175,6917.865,95.437,540.79,538.671,0.0
52363.0,STARLINK-3830,PAYLOAD,2024-04-29 21:42:58,15.08839899,0.0001542,53.2194,6.3066,112.1375,247.9781,0.00041744,6.362e-05,0.0,0 STARLINK-3830,1 52363U 22045AJ  24120.90484458  .00006362  00000-0  41744-3 0  9993,2 52363  53.2194   6.3066 0001542 112.1375 247.9781 15.08839899113315,6917.881,95.438,540.812,538.679,0.0
52363.0,STARLINK-3830,PAYLOAD,2024-04-30 08:50:39,15.08849936,0.0001294,53.2181,4.2224,102.2021,257.9116,0.00025966,3.848e-05,0.0,0 STARLINK-3830,1 52363U 22045AJ  24121.36851816  .00003848  00000-0  25966-3 0  9994,2 52363  53.2181   4.2224 0001294 102.2021 257.9116 15.08849936113389,6917.85,95.437,540.61,538.82,0.0
52363.0,STARLINK-3830,PAYLOAD,2024-04-30 23:09:08,15.08841099,0.0001721,53.2204,1.5516,121.6864,238.4296,-2.6181e-05,-7.05e-06,0.0,0 STARLINK-3830,1 52363U 22045AJ  24121.96468634 -.00000705  00000-0 -26181-4 0  9994,2 52363  53.2204   1.5516 0001721 121.6864 238.4296 15.08841099113479,6917.877,95.437,540.933,538.551,0.0
52363.0,STARLINK-3830,PAYLOAD,2024-05-01 08:41:26,15.08851485,0.000154,53.2205,359.764,109.4954,250.6204,0.00010112,1.322e-05,0.0,0 STARLINK-3830,1 52363U 22045AJ  24122.36211566  .00001322  00000-0  10112-3 0  9999,2 52363  53.2205 359.7640 0001540 109.4954 250.6204 15.08851485113531,6917.845,95.437,540.776,538.645,0.0
52363.0,STARLINK-3830,PAYLOAD,2024-05-02 00:35:18,15.08843668,0.0001308,53.2199,356.7881,90.1748,269.9394,6.2634e-05,7.09e-06,0.0,0 STARLINK-3830,1 52363U 22045AJ  24123.02451859  .00000709  00000-0  62634-4 0  9999,2 52363  53.2199 356.7881 0001308  90.1748 269.9394 15.08843668113634,6917.869,95.437,540.639,538.829,0.0
52363.0,STARLINK-3830,PAYLOAD,2024-05-02 21:15:19,15.08832791,0.0001318,53.2186,352.9225,87.9873,272.127,0.00016034,2.264e-05,0.0,0 STARLINK-3830,1 52363U 22045AJ  24123.88564099  .00002264  00000-0  16034-3 0  9994,2 52363  53.2186 352.9225 0001318  87.9873 272.1270 15.08832791113762,6917.902,95.438,540.679,538.856,0.0
52363.0,STARLINK-3830,PAYLOAD,2024-05-03 08:23:00,15.08852785,0.0001257,53.2178,350.8394,76.1218,283.9914,7.3324e-05,8.8e-06,0.0,0 STARLINK-3830,1 52363U 22045AJ  24124.34930815  .00000880  00000-0  73324-4 0  9997,2 52363  53.2178 350.8394 0001257  76.1218 283.9914 15.08852785113830,6917.841,95.437,540.576,538.837,0.0
52363.0,STARLINK-3830,PAYLOAD,2024-05-03 14:44:33,15.0884712,0.0002217,53.2133,349.653,78.6209,281.5032,0.00010084,1.317e-05,0.0,0 STARLINK-3830,1 52363U 22045AJ  24124.61427401  .00001317  00000-0  10084-3 0  9998,2 52363  53.2133 349.6530 0002217  78.6209 281.5032 15.08847120113879,6917.859,95.437,541.257,538.19,0.0
52363.0,STARLINK-3830,PAYLOAD,2024-05-03 19:30:44,15.08828501,0.0001541,53.2168,348.759,80.9328,279.1838,-6.0949e-05,-1.258e-05,0.0,0 STARLINK-3830,1 52363U 22045AJ  24124.81300968 -.00001258  00000-0 -60949-4 0  9990,2 52363  53.2168 348.7590 0001541  80.9328 279.1838 15.08828501113903,6917.916,95.438,540.847,538.714,0.0
52363.0,STARLINK-3830,PAYLOAD,2024-05-03 22:41:30,15.08827524,0.0001328,53.2171,348.1642,86.1025,274.0119,-2.2619e-05,-6.48e-06,0.0,0 STARLINK-3830,1 52363U 22045AJ  24124.94548913 -.00000648  00000-0 -22619-4 0  9992,2 52363  53.2171 348.1642 0001328  86.1025 274.0119 15.08827524113926,6917.919,95.438,540.702,538.865,0.0
52363.0,STARLINK-3830,PAYLOAD,2024-05-04 08:13:48,15.08836266,0.0001378,53.2177,346.3803,83.7602,276.3547,4.9991e-05,5.08e-06,0.0,0 STARLINK-3830,1 52363U 22045AJ  24125.34292414  .00000508  00000-0  49991-4 0  9994,2 52363  53.2177 346.3803 0001378  83.7602 276.3547 15.08836266113989,6917.892,95.438,540.71,538.804,0.0
52363.0,STARLINK-3830,PAYLOAD,2024-05-05 00:07:39,15.08847001,0.0001323,53.2174,343.4063,87.8788,272.2356,0.00012961,1.776e-05,0.0,0 STARLINK-3830,1 52363U 22045AJ  24126.00531750  .00001776  00000-0  12961-3 0  9991,2 52363  53.2174 343.4063 0001323  87.8788 272.2356 15.08847001114086,6917.859,95.437,540.639,538.809,0.0
52363.0,STARLINK-3830,PAYLOAD,2024-05-05 14:26:08,15.088377,0.0001421,53.2174,340.73,80.4984,279.6169,0.00026211,3.886e-05,0.0,0 STARLINK-3830,1 52363U 22045AJ  24126.60148249  .00003886  00000-0  26211-3 0  9991,2 52363  53.2174 340.7300 0001421  80.4984 279.6169 15.08837700114174,6917.887,95.438,540.735,538.769,0.0
52363.0,STARLINK-3830,PAYLOAD,2024-05-05 20:47:40,15.08843079,0.0001359,53.2171,339.5391,87.4845,272.6302,0.00026024,3.857e-05,0.0,0 STARLINK-3830,1 52363U 22045AJ  24126.86644419  .00003857  00000-0  26024-3 0  9999,2 52363  53.2171 339.5391 0001359  87.4845 272.6302 15.08843079114213,6917.871,95.437,540.676,538.796,0.0
52363.0,STARLINK-3830,PAYLOAD,2024-05-05 23:58:27,15.08843662,0.0001362,53.2172,338.9445,87.4743,272.6405,0.0002543,3.762e-05,0.0,0 STARLINK-3830,1 52363U 22045AJ  24126.99892411  .00003762  00000-0  25430-3 0  9995,2 52363  53.2172 338.9445 0001362  87.4743 272.6405 15.08843662114232,6917.869,95.437,540.676,538.792,0.0
52363.0,STARLINK-3830,PAYLOAD,2024-05-06 20:38:27,15.08850162,0.0001279,53.2169,335.0784,89.2972,270.8166,0.00013097,1.798e-05,0.0,0 STARLINK-3830,1 52363U 22045AJ  24127.86003787  .00001798  00000-0  13097-3 0  9995,2 52363  53.2169 335.0784 0001279  89.2972 270.8166 15.08850162114364,6917.849,95.437,540.599,538.83,0.0
52363.0,STARLINK-3830,PAYLOAD,2024-05-07 14:07:44,15.08811822,0.0001346,53.2166,331.8086,83.3205,276.794,-0.00025601,-4.357e-05,0.0,0 STARLINK-3830,1 52363U 22045AJ  24128.58870588 -.00004357  00000-0 -25601-3 0  9996,2 52363  53.2166 331.8086 0001346  83.3205 276.7940 15.08811822114476,6917.967,95.439,540.763,538.9,0.0
52363.0,STARLINK-3830,PAYLOAD,2024-05-07 20:29:15,15.08838617,0.0001278,53.2167,330.618,96.7115,263.4022,0.00016181,2.288e-05,0.0,0 STARLINK-3830,1 52363U 22045AJ  24128.85365602  .00002288  00000-0  16181-3 0  9994,2 52363  53.2167 330.6180 0001278  96.7115 263.4022 15.08838617114511,6917.885,95.438,540.634,538.866,0.0
52363.0,STARLINK-3830,PAYLOAD,2024-05-07 22:04:38,15.08839895,0.0001288,53.2168,330.3207,97.411,262.7029,0.000182,2.61e-05,0.0,0 STARLINK-3830,1 52363U 22045AJ  24128.91989571  .00002610  00000-0  18200-3 0  9991,2 52363  53.2168 330.3207 0001288  97.4110 262.7029 15.08839895114522,6917.881,95.438,540.637,538.855,0.0
52363.0,STARLINK-3830,PAYLOAD,2024-05-08 12:23:07,15.08849622,0.0001185,53.2165,327.6493,93.5813,266.5314,0.00048064,7.372e-05,0.0,0 STARLINK-3830,1 52363U 22045AJ  24129.51605518  .00007372  00000-0  48064-3 0  9995,2 52363  53.2165 327.6493 0001185  93.5813 266.5314 15.08849622114616,6917.851,95.437,540.536,538.896,0.0
52363.0,STARLINK-3830,PAYLOAD,2024-05-08 20:20:02,15.08849493,0.000128,53.2163,326.1619,100.2307,259.8829,0.00041308,6.294e-05,0.0,0 STARLINK-3830,1 52363U 22045AJ  24129.84725276  .00006294  00000-0  41308-3 0  9991,2 52363  53.2163 326.1619 0001280 100.2307 259.8829 15.08849493114665,6917.851,95.437,540.602,538.831,0.0
52363.0,STARLINK-3830,PAYLOAD,2024-05-09 05:52:20,15.08867488,0.0001209,53.2168,324.3723,67.1996,292.9124,0.00070167,0.00010905,0.0,0 STARLINK-3830,1 52363U 22045AJ  24130.24468010  .00010905  00000-0  70167-3 0  9996,2 52363  53.2168 324.3723 0001209  67.1996 292.9124 15.08867488114729,6917.796,95.436,540.498,538.825,0.0
52363.0,STARLINK-3830,PAYLOAD,2024-05-09 20:10:49,15.08847977,0.0001263,53.2163,321.7,78.5171,281.5962,1.3211e-06,-2.67e-06,0.0,0 STARLINK-3830,1 52363U 22045AJ  24130.84084696 -.00000267  00000-0  13211-5 0  9996,2 52363  53.2163 321.7000 0001263  78.5171 281.5962 15.08847977114819,6917.856,95.437,540.595,538.847,0.0
52363.0,STARLINK-3830,PAYLOAD,2024-05-10 12:04:40,15.08841211,0.0001537,53.2163,318.7268,83.8492,276.2675,1.8401e-05,5e-08,0.0,0 STARLINK-3830,1 52363U 22045AJ  24131.50324676  .00000005  00000-0  18401-4 0  9999,2 52363  53.2163 318.7268 0001537  83.8492 276.2675 15.08841211114918,6917.877,95.437,540.805,538.678,0.0
52363.0,STARLINK-3830,PAYLOAD,2024-05-10 20:01:36,15.08856269,0.000136,53.2168,317.2384,82.7646,277.3501,0.0007253,0.00011279,0.0,0 STARLINK-3830,1 52363U 22045AJ  24131.83444682  .00011279  00000-0  72530-3 0  9992,2 52363  53.2168 317.2384 0001360  82.7646 277.3501 15.08856269114963,6917.831,95.437,540.636,538.755,0.0
